[{"OBJECT_NAME":"STARLINK-31704","OBJECT_ID":"2024-076Y","EPOCH":"2026-03-09T22:00:01.999584","MEAN_MOTION":15.30892355,"ECCENTRICITY":0.00079744,"INCLINATION":42.9978,"RA_OF_ASC_NODE":323.2923,"ARG_OF_PERICENTER":240.5046,"MEAN_ANOMALY":200.4144,"EPHEMERIS_TYPE":0,"CLASSIFICATION_TYPE":"U","NORAD_CAT_ID":59586,"ELEMENT_SET_NO":999,"REV_AT_EPOCH":581,"BSTAR":0.0024766131,"MEAN_MOTION_DOT":0.00076042,"MEAN_MOTION_DDOT":0},{"OBJECT_NAME":"STARLINK-33937","OBJECT_ID":"2025-087H","EPOCH":"2026-03-09T16:33:44.168256","MEAN_MOTION":15.30203555,"ECCENTRICITY":9.082e-5,"INCLINATION":53.1591,"RA_OF_ASC_NODE":219.2719,"ARG_OF_PERICENTER":66.2001,"MEAN_ANOMALY":293.9094,"EPHEMERIS_TYPE":0,"CLASSIFICATION_TYPE":"U","NORAD_CAT_ID":63704,"ELEMENT_SET_NO":999,"REV_AT_EPOCH":4920,"BSTAR":0.00094868307,"MEAN_MOTION_DOT":0.00027846,"MEAN_MOTION_DDOT":0}]
